{"spkid": "50694553", "covariance": {"labels": ["e", "q", "tp", "node", "peri", "i"], "data": [["3.724164266741772E-12", "-4.314275185756132E-12", "-9.056513869117967E-11", "-3.482650461643473E-11", "4.121255172265808E-10", "9.719521273048865E-11"], ["-4.314275185756132E-12", "4.997901668975947E-12", "1.049540961954383E-10", "4.034595517922753E-11", "-4.77420190565939E-10", "-1.125872887382088E-10"], ["-9.056513869117967E-11", "1.049540961954383E-10", "2.519644436048194E-9", "8.326573393790541E-10", "-9.898446199677952E-9", "-2.261470117127915E-9"], ["-3.482650461643473E-11", "4.034595517922753E-11", "8.326573393790541E-10", "1.120824612817506E-9", "-4.638094625431839E-9", "-1.675007746405549E-9"], ["4.121255172265808E-10", "-4.77420190565939E-10", "-9.898446199677952E-9", "-4.638094625431839E-9", "4.643160857571875E-8", "1.154279330843296E-8"], ["9.719521273048865E-11", "-1.125872887382088E-10", "-2.261470117127915E-9", "-1.675007746405549E-9", "1.154279330843296E-8", "3.947412937196476E-9"]], "elements": [{"title": "eccentricity", "value": ".7698075359431277", "units": null, "name": "e", "sigma": 1.92980938611609e-06, "label": "e"}, {"units": "au", "value": ".2687013040608459", "title": "perihelion distance", "sigma": 2.23559872718159e-06, "name": "q", "label": "q"}, {"units": "TDB", "value": "2457480.420727468403", "title": "time of perihelion passage", "sigma": 5.01960599653817e-05, "name": "tp", "label": "tp"}, {"label": "node", "title": "longitude of the ascending node", "value": "221.7357888425568", "units": "deg", "name": "om", "sigma": 3.34787188048991e-05}, {"name": "w", "sigma": 0.000215479949358911, "title": "argument of perihelion", "value": "316.1850368243474", "units": "deg", "label": "peri"}, {"label": "i", "name": "i", "sigma": 6.28284405122113e-05, "title": "inclination", "value": "8.685275432225458", "units": "deg"}], "epoch": "2457705.5"}, "elements": [{"label": "e", "value": ".7697326784376531", "title": "eccentricity", "units": null, "sigma": "1.9277E-6", "name": "e"}, {"value": "1.167483328238521", "title": "semi-major axis", "units": "au", "sigma": "5.7083E-8", "name": "a", "label": "a"}, {"name": "q", "sigma": "2.2376E-6", "units": "au", "value": ".2688332589621784", "title": "perihelion distance", "label": "q"}, {"name": "i", "sigma": "6.308E-5", "title": "inclination; angle with respect to x-y ecliptic plane", "value": "8.698690253157142", "units": "deg", "label": "i"}, {"label": "node", "units": "deg", "value": "221.614808040967", "title": "longitude of the ascending node", "name": "om", "sigma": "3.3303E-5"}, {"label": "peri", "units": "deg", "title": "argument of perihelion", "value": "316.3115797513326", "name": "w", "sigma": ".00021618"}, {"label": "M", "units": "deg", "title": "mean anomaly", "value": "27.07148296335766", "sigma": ".00024361", "name": "ma"}, {"sigma": ".00030926", "name": "tp", "units": "TDB", "value": "2461165.851534597567", "title": "time of perihelion passage", "label": "tp"}, {"units": "d", "title": "sidereal orbital period", "value": "460.7596695666438", "name": "per", "sigma": "3.3793E-5", "label": "period"}, {"units": "deg/d", "value": ".7813183830489964", "title": "mean motion", "name": "n", "sigma": "5.7303E-8", "label": "n"}, {"units": "au", "title": "aphelion distance", "value": "2.066133397514863", "name": "ad", "sigma": "1.0102E-7", "label": "Q"}], "epoch": "2461200.5"}